*******************************************************************************
Ephemeris / WWW_USER Mon Mar 26 20:57:10 2018 Pasadena, USA      / Horizons    
*******************************************************************************
Target body name: Thebe (514)                     {source: jup310}
Center body name: Jupiter Barycenter (5)          {source: DE431mx}
Center-site name: BODY CENTER
*******************************************************************************
Start time      : A.D. 2000-Jan-01 00:00:00.0000 TDB
Stop  time      : A.D. 2010-Jan-01 00:00:00.0000 TDB
Step-size       : 7200 minutes
*******************************************************************************
Center geodetic : 0.00000000,0.00000000,0.0000000 {E-lon(deg),Lat(deg),Alt(km)}
Center cylindric: 0.00000000,0.00000000,0.0000000 {E-lon(deg),Dxy(km),Dz(km)}
Center radii    : (undefined)                                                  
Output units    : AU-D                                                         
Output type     : GEOMETRIC cartesian states
Output format   : 2 (position and velocity)
Reference frame : ICRF/J2000.0                                                 
Coordinate systm: Ecliptic and Mean Equinox of Reference Epoch                 
*******************************************************************************
JDTDB
   X     Y     Z
   VX    VY    VZ
*******************************************************************************
$$SOE
2454694.500000000 = A.D. 2008-Aug-16 00:00:00.0000 TDB 
  -8.581130869786802E-04 -1.197445638107190E-03 -6.005702146094307E-05
   1.143850847577401E-02 -7.884788104282401E-03 -3.715493897545113E-04
2454699.500000000 = A.D. 2008-Aug-21 00:00:00.0000 TDB 
   1.317994980980428E-03  6.633370634745316E-04  3.736347417664522E-05
  -6.047205493718782E-03  1.248245347477766E-02  6.127534880563033E-04
2454704.500000000 = A.D. 2008-Aug-26 00:00:00.0000 TDB 
  -1.490102417329016E-03  2.033573899184850E-04  3.687066955197212E-06
  -1.710019942875073E-03 -1.349362418395181E-02 -7.050408415515837E-04
2454709.500000000 = A.D. 2008-Aug-31 00:00:00.0000 TDB 
   1.144030996607265E-03 -8.997087204966939E-04 -4.011945132310957E-05
   8.690297332026685E-03  1.103215509205759E-02  6.359838875699147E-04
2454714.500000000 = A.D. 2008-Sep-05 00:00:00.0000 TDB 
  -5.543712178302041E-04  1.395461922016454E-03  7.001072113668497E-05
  -1.272458413814716E-02 -4.871705779981243E-03 -3.646338490653020E-04
2454719.500000000 = A.D. 2008-Sep-10 00:00:00.0000 TDB 
  -3.343587671664070E-04 -1.438234779141583E-03 -8.105246522002145E-05
   1.355283735444968E-02 -2.915820875296741E-03 -2.047766669890063E-05
2454724.500000000 = A.D. 2008-Sep-15 00:00:00.0000 TDB 
   9.616795987147142E-04  1.112800724924843E-03  7.216969277450969E-05
  -1.038744483701130E-02  9.252839965773932E-03  3.778710281710163E-04
2454729.500000000 = A.D. 2008-Sep-20 00:00:00.0000 TDB 
  -1.455690050862712E-03 -3.873589003427595E-04 -4.170538434966435E-05
   3.616899017014987E-03 -1.309601453782577E-02 -6.639072423337717E-04
2454734.500000000 = A.D. 2008-Sep-25 00:00:00.0000 TDB 
   1.401703865648918E-03 -4.034608760066591E-04  6.634541326350909E-07
   3.832353886586471E-03  1.350014527173481E-02  7.982679070462679E-04
2454739.500000000 = A.D. 2008-Sep-30 00:00:00.0000 TDB 
  -1.049100286946878E-03  1.072498247245066E-03  3.910740674356892E-05
  -9.883829687580484E-03 -9.396480532559081E-03 -6.894649474340345E-04
2454744.500000000 = A.D. 2008-Oct-05 00:00:00.0000 TDB 
   2.404576206524164E-04 -1.459597575356718E-03 -7.361858085834666E-05
   1.359747115031143E-02  2.468968797570546E-03  4.064230503183613E-04
2454749.500000000 = A.D. 2008-Oct-10 00:00:00.0000 TDB 
   4.649945156289798E-04  1.390493845133455E-03  8.400583934457750E-05
  -1.316240508874556E-02  4.613176329067532E-03 -4.507932129960525E-05
2454754.500000000 = A.D. 2008-Oct-15 00:00:00.0000 TDB 
  -1.191294374177990E-03 -9.210512449583429E-04 -7.640774248758697E-05
   8.376718893013608E-03 -1.069395920036987E-02 -3.583970346791799E-04
2454759.500000000 = A.D. 2008-Oct-20 00:00:00.0000 TDB 
   1.448769381773122E-03  1.563756193608032E-04  4.495594086311143E-05
  -1.598743392435059E-03  1.393812247750701E-02  6.714097836161576E-04
2454764.500000000 = A.D. 2008-Oct-25 00:00:00.0000 TDB 
  -1.378703267412580E-03  5.848939019706987E-04 -8.232144055303919E-06
  -5.516574446311201E-03 -1.249805070761670E-02 -7.724323238646115E-04
2454769.500000000 = A.D. 2008-Oct-30 00:00:00.0000 TDB 
   7.854689452718954E-04 -1.261976258477300E-03 -3.864379584674488E-05
   1.157802187127272E-02  7.461778435057745E-03  6.918571534520083E-04
2454774.500000000 = A.D. 2008-Nov-04 00:00:00.0000 TDB 
  -9.984450879108404E-05  1.461921729446015E-03  6.543908809810933E-05
  -1.394999986980775E-02 -7.457166664040388E-04 -4.511352241600784E-04
2454779.500000000 = A.D. 2008-Nov-09 00:00:00.0000 TDB 
  -7.421845590373443E-04 -1.311105240585295E-03 -8.205608543144056E-05
   1.183746659375289E-02 -6.653345222630437E-03  6.592882715062117E-05
2454784.500000000 = A.D. 2008-Nov-14 00:00:00.0000 TDB 
   1.284471240842960E-03  6.915346038976770E-04  7.077579916892036E-05
  -6.775304743787848E-03  1.228217336569215E-02  3.162463647253489E-04
2454789.500000000 = A.D. 2008-Nov-19 00:00:00.0000 TDB 
  -1.493535983743524E-03  1.021323309956510E-05 -4.811890292936923E-05
  -2.905052261918896E-04 -1.369937878936941E-02 -5.767304895800279E-04
2454794.500000000 = A.D. 2008-Nov-24 00:00:00.0000 TDB 
   1.210250882392012E-03 -8.662717114562311E-04  5.775076477652221E-06
   7.806639300109460E-03  1.130433331801298E-02  7.038893391373523E-04
2454799.500000000 = A.D. 2008-Nov-29 00:00:00.0000 TDB 
  -6.446081734252403E-04  1.312511136192172E-03  2.768194430428499E-05
  -1.262885911204259E-02 -6.014200091250849E-03 -6.459558930951385E-04
2454804.500000000 = A.D. 2008-Dec-04 00:00:00.0000 TDB 
  -1.746784626367677E-04 -1.498324089413729E-03 -5.890993635879971E-05
   1.347723054452669E-02 -1.587081968752816E-03  3.936617513300704E-04
2454809.500000000 = A.D. 2008-Dec-09 00:00:00.0000 TDB 
   9.259246642522454E-04  1.130324565511571E-03  6.850397085023677E-05
  -1.092189839865922E-02  8.774127540954607E-03 -6.984457192379975E-05
2454814.500000000 = A.D. 2008-Dec-14 00:00:00.0000 TDB 
  -1.378758048045254E-03 -5.639968233858260E-04 -6.295803442019428E-05
   4.997926116634963E-03 -1.280368388985789E-02 -2.378987263740309E-04
2454819.500000000 = A.D. 2008-Dec-19 00:00:00.0000 TDB 
   1.454932513400531E-03 -3.373640971189380E-04  3.693110258311006E-05
   2.866097972626806E-03  1.341297687789732E-02  4.877771854885973E-04
2454824.500000000 = A.D. 2008-Dec-24 00:00:00.0000 TDB 
  -1.092864662402934E-03  9.709885810468133E-04 -7.530775461832422E-06
  -9.399056637679235E-03 -1.039448187976303E-02 -5.828140834188805E-04
2454829.500000000 = A.D. 2008-Dec-29 00:00:00.0000 TDB 
   4.182417449678579E-04 -1.449200642000093E-03 -2.471620309926591E-05
   1.304537178090429E-02  3.728222824930467E-03  4.942059661067336E-04
2454834.500000000 = A.D. 2009-Jan-03 00:00:00.0000 TDB 
   4.306669327566437E-04  1.398880455812326E-03  4.645958175807760E-05
  -1.341327705850845E-02  3.947640651965368E-03 -2.980017800106718E-04
2454839.500000000 = A.D. 2009-Jan-08 00:00:00.0000 TDB 
  -1.053868174474601E-03 -1.047781403622136E-03 -5.324357222821299E-05
   9.545347443289904E-03 -9.939517753533003E-03  4.194927144078438E-05
2454844.500000000 = A.D. 2009-Jan-13 00:00:00.0000 TDB 
   1.474024880249582E-03  2.507531025815798E-04  4.439412443366712E-05
  -2.496505695499959E-03  1.346086119715548E-02  2.205333735199643E-04
2454849.500000000 = A.D. 2009-Jan-18 00:00:00.0000 TDB 
  -1.376018115614425E-03  4.833920872889048E-04 -2.445995866713267E-05
  -4.741038216057197E-03 -1.321201529714551E-02 -3.834461528041540E-04
2454854.500000000 = A.D. 2009-Jan-23 00:00:00.0000 TDB 
   9.474629361886448E-04 -1.174319802481530E-03 -5.922669156357990E-07
   1.060902642420207E-02  8.474798634257544E-03  4.069718489485108E-04
2454859.500000000 = A.D. 2009-Jan-28 00:00:00.0000 TDB 
  -1.349007420590408E-04  1.462791082655593E-03  2.394365632033777E-05
  -1.387820968058843E-02 -1.466332445578774E-03 -3.219126431959017E-04
2454864.500000000 = A.D. 2009-Feb-02 00:00:00.0000 TDB 
  -5.703518573682373E-04 -1.369217848797038E-03 -3.525809370376488E-05
   1.265539068304420E-02 -5.538043246858971E-03  1.468880615747438E-04
2454869.500000000 = A.D. 2009-Feb-07 00:00:00.0000 TDB 
   1.267876514176222E-03  8.004178087348999E-04  3.582124953335540E-05
  -7.459332679756814E-03  1.144705495293944E-02  6.804345390033081E-05
2454874.500000000 = A.D. 2009-Feb-12 00:00:00.0000 TDB 
  -1.456560109596076E-03 -7.175034409895022E-05 -2.355381411319065E-05
   6.425562263686018E-04 -1.403811542956223E-02 -2.297161144527961E-04
2454879.500000000 = A.D. 2009-Feb-17 00:00:00.0000 TDB 
   1.326047226016586E-03 -7.145671932522879E-04  5.423829962936007E-06
   6.532819429194058E-03  1.192028695851246E-02  2.907584141098000E-04
2454884.500000000 = A.D. 2009-Feb-22 00:00:00.0000 TDB 
  -6.810053646774197E-04  1.302813257641528E-03  1.492806191832456E-05
  -1.224101287117828E-02 -6.639324442709131E-03 -2.535925145767873E-04
2454889.500000000 = A.D. 2009-Feb-27 00:00:00.0000 TDB 
  -3.007628247542410E-06 -1.479159679031096E-03 -2.642420039037053E-05
   1.384690491401164E-02 -2.715969756795178E-04  1.244654395625489E-04
2454894.500000000 = A.D. 2009-Mar-04 00:00:00.0000 TDB 
   8.603268891162273E-04  1.231869801500996E-03  2.923026403803808E-05
  -1.126780952225763E-02  7.682947215810998E-03  5.816686757875863E-05
2454899.500000000 = A.D. 2009-Mar-09 00:00:00.0000 TDB 
  -1.319670804340922E-03 -6.183120243669007E-04 -1.943077133910702E-05
   5.938459728013759E-03 -1.274215305313776E-02 -2.132259218163033E-04
